*******************************************************************************
JPL/HORIZONS              25143 Itokawa (1998 SF36)        2024-Oct-05 23:42:13
Rec #:   25143 (+COV) Soln.date: 2024-Oct-05_06:55:38    # obs: 965 (1998-2024)
 
IAU76/J2000 helio. ecliptic osc. elements (au, days, deg., period=Julian yrs):
 
  EPOCH=  2453005.5 ! 2004-Jan-01.00 (TDB)         Residual RMS= .23406
   EC= .2794658944632398   QR= .9531059211972176   TP= 2453145.4131572735
   OM= 70.917681158661     W=  161.0144445613999   IN= 1.727962114113612
   A= 1.322776970407533    MA= 269.3573293185695   ADIST= 1.692448019617849
   PER= 1.52138            N= .647849512           ANGMOM= .018996185
   DAN= 1.65748            DDN= .96457             L= 231.9401413
   B= .5620813             MOID= .0128853          TP= 2004-May-19.9131572735
 
Asteroid physical parameters (km, seconds, rotational period in hours):
   GM= 2.1E-9              RAD= .165               ROTPER= 12.132
   H= 19.26                G= .150                 B-V= n.a.
                           ALBEDO= n.a.            STYP= S(IV)

Asteroid non-gravitational force model (AMRAT= m^2/kg;A1,A2,A3=au/d^2;R0=au):
   AMRAT=  0.
   A1= 0.                  A2= -2.851458930309E-14 A3= 0.
 Non-standard or simulated/proxy model:
   ALN=  1.            NK=  0.       NM=  2.       NN=  5.093    R0=  1.

ASTEROID comments: 
1: soln ref.= JPL#219, PHA  OCC=0       radar(19 delay,18 Dop.)
2: source=ORB; Nongravitational accels. using nonstandard g(r) = (1 au/ r)^2
*******************************************************************************


*******************************************************************************
Ephemeris / WWW_USER Sat Oct  5 23:42:13 2024 Pasadena, USA      / Horizons    
*******************************************************************************
Target body name: 25143 Itokawa (1998 SF36)       {source: JPL#219}
Center body name: Earth (399)                     {source: DE441}
Center-site name: (user defined site below)
*******************************************************************************
Start time      : A.D. 2024-Oct-05 00:00:00.0000 UT      
Stop  time      : A.D. 2024-Nov-04 00:00:00.0000 UT      
Step-size       : 1440 minutes
*******************************************************************************
Target pole/equ : IAU                             {East-longitude positive}
Target radii    : .268, .147, .104 km             {Equator_a, b, pole_c}       
Center geodetic : 243.42, 33.0, 0.0               {E-lon(deg),Lat(deg),Alt(km)}
Center cylindric: 243.42, 5354.47479, 3453.95864  {E-lon(deg),Dxy(km),Dz(km)}
Center pole/equ : ITRF93                          {East-longitude positive}
Center radii    : 6378.137, 6378.137, 6356.752 km {Equator_a, b, pole_c}       
Target primary  : Sun
Vis. interferer : MOON (R_eq= 1737.400) km        {source: DE441}
Rel. light bend : Sun                             {source: DE441}
Rel. lght bnd GM: 1.3271E+11 km^3/s^2                                          
Small-body perts: Yes                             {source: SB441-N16}
Atmos refraction: NO (AIRLESS)
RA format       : HMS
Time format     : CAL 
Calendar mode   : Mixed Julian/Gregorian
EOP file        : eop.241004.p241228                                           
EOP coverage    : DATA-BASED 1962-JAN-20 TO 2024-OCT-04. PREDICTS-> 2024-DEC-27
Units conversion: 1 au= 149597870.700 km, c= 299792.458 km/s, 1 day= 86400.0 s 
Table cut-offs 1: Elevation (-90.0deg=NO ),Airmass (>38.000=NO), Daylight (NO )
Table cut-offs 2: Solar elongation (  0.0,180.0=NO ),Local Hour Angle( 0.0=NO )
Table cut-offs 3: RA/DEC angular rate (     0.0=NO )                           
*******************************************************************************
Initial IAU76/J2000 heliocentric ecliptic osculating elements (au, days, deg.):
  EPOCH=  2453005.5 ! 2004-Jan-01.00 (TDB)         Residual RMS= .23406        
   EC= .2794658944632398   QR= .9531059211972176   TP= 2453145.4131572735      
   OM= 70.917681158661     W=  161.0144445613999   IN= 1.727962114113612       
  Equivalent ICRF heliocentric cartesian coordinates (au, au/d):
   X=-5.074294446450405E-01  Y= 1.210347181736653E+00  Z= 5.548273511804703E-01
  VX=-1.112385853351319E-02 VY=-7.651333123187568E-03 VZ=-3.060140947179617E-03
Asteroid physical parameters (km, seconds, rotational period in hours):        
   GM= 2.1E-9              RAD= .165               ROTPER= 12.132              
   H= 19.26                G= .150                 B-V= n.a.                   
                           ALBEDO= n.a.            STYP= S(IV)                 
Asteroid non-gravitational force model (AMRAT= m^2/kg;A1,A2,A3=au/d^2;R0=au):  
   AMRAT=  0.                                                                  
   A1= 0.                  A2= -2.851458930309E-14 A3= 0.                      
 Non-standard or simulated/proxy model:                                        
   ALN=  1.            NK=  0.       NM=  2.       NN=  5.093    R0=  1.       
******************************************************************************************************************************************************************************
 Date__(UT)__HR:MN     R.A._____(ICRF)_____DEC    APmag   S-brt             delta      deldot     S-O-T /r     S-T-O  Sky_motion  Sky_mot_PA  RelVel-ANG  Lun_Sky_Brt  sky_SNR
******************************************************************************************************************************************************************************
$$SOE
 2024-Nov-02 00:00 *m  01 55 58.08 +09 33 13.2   20.003   4.465  0.68340317867244   5.1185695  170.3757 /T    5.6986   1.1688472   253.66568   27.924064         n.a.     n.a.
 2024-Nov-03 00:00 *m  01 54 08.73 +09 25 11.5   20.056   4.711  0.68669334424371   5.5274917  168.9453 /T    6.5331   1.1500757   253.72587   30.067301         n.a.     n.a.
 2024-Nov-04 00:00 *m  01 52 21.34 +09 17 19.8   20.107   4.916  0.69021984401360   5.9323334  167.5136 /T    7.3642   1.1294953   253.79460   32.186965         n.a.     n.a.
